[{"OBJECT_NAME":"NUSAT-43 (R DIENG-KUNTZ)","OBJECT_ID":"2023-084AN","EPOCH":"2026-03-08T21:55:35.625792","MEAN_MOTION":15.74780826,"ECCENTRICITY":0.00059701,"INCLINATION":97.4369,"RA_OF_ASC_NODE":210.0765,"ARG_OF_PERICENTER":240.2474,"MEAN_ANOMALY":119.8197,"EPHEMERIS_TYPE":0,"CLASSIFICATION_TYPE":"U","NORAD_CAT_ID":56968,"ELEMENT_SET_NO":999,"REV_AT_EPOCH":15344,"BSTAR":0.0011289476,"MEAN_MOTION_DOT":0.00168767,"MEAN_MOTION_DDOT":0},{"OBJECT_NAME":"STARLINK-11419 [DTC]","OBJECT_ID":"2025-024E","EPOCH":"2026-03-09T08:27:49.290048","MEAN_MOTION":15.710054,"ECCENTRICITY":0.00013582,"INCLINATION":42.9992,"RA_OF_ASC_NODE":183.4837,"ARG_OF_PERICENTER":237.9028,"MEAN_ANOMALY":122.1708,"EPHEMERIS_TYPE":0,"CLASSIFICATION_TYPE":"U","NORAD_CAT_ID":62883,"ELEMENT_SET_NO":999,"REV_AT_EPOCH":6341,"BSTAR":0.0021637912,"MEAN_MOTION_DOT":0.00289073,"MEAN_MOTION_DDOT":0}]
