NUSAT-43 (R DIENG-KUNTZ)
1 56968U 23084AN  26067.91360678  .00168767  00000+0  11289-2 0  9999
2 56968  97.4369 210.0765 0005970 240.2474 119.8197 15.74780826153440
STARLINK-11419 [DTC]    
1 62883U 25024E   26068.35265382  .00289073  00000+0  21638-2 0  9996
2 62883  42.9992 183.4837 0001358 237.9028 122.1708 15.71005400 63414
